{"type":"FeatureCollection","features":[{"type":"Feature","properties":{"code":"E09000001","name":"City of London","listings_2015":120,"listings_2019":436,"listings_2026":591},"geometry":{"type":"MultiPolygon","coordinates":[[[[-0.10415,51.50854],[-0.10415,51.50854]]],[[[-0.09676,51.52331],[-0.0862,51.51881],[-0.07853,51.52151],[-0.07941,51.51889],[-0.07274,51.51041],[-0.07947,51.50783],[-0.1115,51.51083],[-0.1138,51.51826],[-0.09766,51.52071],[-0.09676,51.52331]]]]}},{"type":"Feature","properties":{"code":"E09000002","name":"Barking and Dagenham","listings_2015":7,"listings_2019":315,"listings_2026":689},"geometry":{"type":"MultiPolygon","coordinates":[[[[0.07103,51.53714],[0.07565,51.52982],[0.07275,51.52927],[0.06796,51.5362],[0.06836,51.54439],[0.07103,51.53714]]],[[[0.14815,51.59678],[0.15114,51.59545],[0.15123,51.58892],[0.14701,51.57571],[0.14974,51.56971],[0.1467,51.5688],[0.16189,51.56162],[0.18518,51.56551],[0.18267,51.56124],[0.19022,51.55265],[0.16546,51.52841],[0.15875,51.51226],[0.12674,51.51957],[0.10106,51.51445],[0.09562,51.51699],[0.09217,51.52673],[0.08578,51.52599],[0.0764,51.52982],[0.06947,51.53897],[0.06971,51.54407],[0.07796,51.54405],[0.09261,51.54965],[0.09352,51.54586],[0.11195,51.55267],[0.11475,51.55533],[0.11327,51.55727],[0.12049,51.55857],[0.11749,51.55918],[0.11905,51.56305],[0.12931,51.56647],[0.13158,51.57182],[0.12919,51.57631],[0.13357,51.57995],[0.12776,51.58164],[0.12639,51.58673],[0.1466,51.59944],[0.14815,51.59678]]]]}},{"type":"Feature","properties":{"code":"E09000003","name":"Barnet","listings_2015":65,"listings_2019":1534,"listings_2026":2367},"geometry":{"type":"MultiPolygon","coordinates":[[[[-0.18196,51.66868],[-0.18589,51.66285],[-0.15473,51.65555],[-0.14987,51.64881],[-0.15163,51.64532],[-0.12909,51.63227],[-0.13559,51.62158],[-0.1445,51.61551],[-0.13871,51.61019],[-0.14343,51.60883],[-0.14197,51.60371],[-0.14444,51.60013],[-0.15133,51.59747],[-0.15586,51.60547],[-0.16176,51.59748],[-0.15869,51.592],[-0.16023,51.58799],[-0.15713,51.58619],[-0.16572,51.58322],[-0.17438,51.56926],[-0.17812,51.57051],[-0.18923,51.5655],[-0.19937,51.55619],[-0.21349,51.55519],[-0.23548,51.57255],[-0.24596,51.57222],[-0.2473,51.56847],[-0.25113,51.57028],[-0.25433,51.58153],[-0.24823,51.58431],[-0.30557,51.63412],[-0.30445,51.63635],[-0.27371,51.63867],[-0.27287,51.6421],[-0.26327,51.64483],[-0.25736,51.64182],[-0.25188,51.64721],[-0.25058,51.65606],[-0.22892,51.65998],[-0.22646,51.65716],[-0.21214,51.66135],[-0.20786,51.66286],[-0.21113,51.66695],[-0.20223,51.66781],[-0.20335,51.67013],[-0.19485,51.66831],[-0.19666,51.66548],[-0.19107,51.6639],[-0.18779,51.66788],[-0.18196,51.66868]]]]}},{"type":"Feature","properties":{"code":"E09000004","name":"Bexley","listings_2015":5,"listings_2019":242,"listings_2026":632},"geometry":{"type":"MultiPolygon","coordinates":[[[[0.20315,51.45828],[0.20315,51.45828]]],[[[0.19929,51.45842],[0.19929,51.45842]]],[[[0.2018,51.48003],[0.19869,51.47833],[0.2018,51.48003]]],[[[0.13222,51.51227],[0.14945,51.50587],[0.16658,51.50345],[0.17165,51.49772],[0.1725,51.48883],[0.17787,51.48302],[0.19045,51.47903],[0.20058,51.48007],[0.19859,51.4783],[0.21168,51.48271],[0.21767,51.48041],[0.20816,51.47084],[0.21101,51.46843],[0.21024,51.4625],[0.19725,51.45759],[0.20306,51.45795],[0.20337,51.45432],[0.19305,51.4517],[0.18415,51.44464],[0.17284,51.44329],[0.16433,51.42858],[0.15588,51.43088],[0.15116,51.42043],[0.15464,51.41847],[0.15106,51.41762],[0.14916,51.41244],[0.15377,51.41127],[0.15293,51.40871],[0.12941,51.41485],[0.10702,51.41426],[0.08279,51.43012],[0.07467,51.43215],[0.07497,51.43587],[0.08446,51.44198],[0.08283,51.44328],[0.08743,51.44328],[0.0857,51.45665],[0.07867,51.45929],[0.08294,51.45983],[0.08231,51.46664],[0.09824,51.47545],[0.10819,51.47612],[0.11199,51.47307],[0.11847,51.4789],[0.12419,51.47685],[0.12022,51.51145],[0.13222,51.51227]]]]}},{"type":"Feature","properties":{"code":"E09000005","name":"Brent","listings_2015":146,"listings_2019":2375,"listings_2026":2939},"geometry":{"type":"MultiPolygon","coordinates":[[[[-0.21349,51.55519],[-0.19147,51.53629],[-0.19648,51.52764],[-0.20299,51.53289],[-0.21528,51.53135],[-0.21602,51.52792],[-0.25774,51.53537],[-0.26857,51.52982],[-0.28037,51.52835],[-0.28938,51.53168],[-0.27893,51.53326],[-0.27777,51.53507],[-0.28246,51.53865],[-0.30269,51.53198],[-0.30745,51.53309],[-0.30472,51.53986],[-0.30852,51.5432],[-0.30774,51.54588],[-0.33556,51.55656],[-0.32824,51.56254],[-0.32985,51.56713],[-0.32215,51.56968],[-0.32664,51.57878],[-0.3047,51.58705],[-0.28247,51.58503],[-0.2842,51.5905],[-0.29041,51.59354],[-0.26711,51.60037],[-0.24823,51.58431],[-0.25433,51.58153],[-0.25113,51.57028],[-0.2473,51.56847],[-0.24596,51.57222],[-0.23342,51.57198],[-0.21349,51.55519]]]]}},{"type":"Feature","properties":{"code":"E09000006","name":"Bromley","listings_2015":36,"listings_2019":651,"listings_2026":912},"geometry":{"type":"MultiPolygon","coordinates":[[[[0.07536,51.43199],[0.08279,51.43012],[0.10702,51.41426],[0.12941,51.41485],[0.14887,51.40843],[0.15525,51.40397],[0.16238,51.39249],[0.14774,51.3928],[0.14961,51.38009],[0.15324,51.37804],[0.1496,51.37358],[0.15206,51.36969],[0.14725,51.36697],[0.14511,51.35576],[0.13696,51.34417],[0.11846,51.34415],[0.11668,51.3413],[0.12168,51.33364],[0.1179,51.32965],[0.1049,51.32741],[0.08503,51.31602],[0.08488,51.30604],[0.08282,51.30563],[0.09118,51.29683],[0.08153,51.29182],[0.05851,51.28935],[0.05079,51.29399],[0.0424,51.29267],[0.0443,51.29858],[0.0423,51.30192],[0.03291,51.30752],[0.02484,51.30215],[0.0191,51.29168],[0.01501,51.29179],[0.00839,51.31056],[0.01035,51.31615],[0.0066,51.31568],[0.00332,51.33216],[-0.00532,51.35268],[-0.02378,51.36544],[-0.02677,51.37938],[-0.0369,51.37702],[-0.03652,51.38843],[-0.05348,51.39491],[-0.05032,51.39796],[-0.05293,51.40144],[-0.06053,51.39914],[-0.0682,51.40349],[-0.07327,51.40923],[-0.07274,51.41269],[-0.08108,51.41731],[-0.07391,51.42621],[-0.04625,51.42237],[-0.03022,51.42568],[-0.02093,51.42093],[-0.02217,51.41674],[-0.01424,51.41365],[0.00353,51.41743],[0.00811,51.42304],[0.02546,51.42897],[0.03628,51.42242],[0.03906,51.42469],[0.03771,51.43334],[0.03116,51.43209],[0.02869,51.43641],[0.0253,51.43598],[0.03055,51.44433],[0.04218,51.43948],[0.06171,51.4237],[0.07536,51.43199]]]]}},{"type":"Feature","properties":{"code":"E09000007","name":"Camden","listings_2015":1400,"listings_2019":5685,"listings_2026":6230},"geometry":{"type":"MultiPolygon","coordinates":[[[[-0.1424,51.56911],[-0.14092,51.56023],[-0.12701,51.54741],[-0.12256,51.53075],[-0.116,51.52989],[-0.11363,51.52457],[-0.107,51.52218],[-0.10529,51.51855],[-0.1138,51.51826],[-0.11157,51.51534],[-0.11383,51.51482],[-0.12934,51.51347],[-0.13078,51.51708],[-0.14712,51.52503],[-0.15268,51.53751],[-0.1649,51.53578],[-0.17851,51.53981],[-0.18872,51.53453],[-0.21349,51.55519],[-0.19937,51.55619],[-0.18923,51.5655],[-0.17812,51.57051],[-0.17438,51.56926],[-0.17123,51.57242],[-0.1424,51.56911]]]]}},{"type":"Feature","properties":{"code":"E09000008","name":"Croydon","listings_2015":63,"listings_2019":1067,"listings_2026":1772},"geometry":{"type":"MultiPolygon","coordinates":[[[[-0.07856,51.41987],[-0.08073,51.41599],[-0.07274,51.41269],[-0.07327,51.40923],[-0.0682,51.40349],[-0.06053,51.39914],[-0.05293,51.40144],[-0.05032,51.39796],[-0.05348,51.39491],[-0.03652,51.38843],[-0.0369,51.37702],[-0.02677,51.37938],[-0.02378,51.36544],[-0.00532,51.35268],[0.00332,51.33216],[0.00226,51.32913],[-0.00869,51.33392],[-0.01432,51.32977],[-0.02215,51.33813],[-0.03792,51.33872],[-0.04199,51.33386],[-0.05028,51.33264],[-0.04787,51.32525],[-0.05131,51.32245],[-0.06399,51.31864],[-0.07007,51.3189],[-0.07102,51.32122],[-0.07891,51.31977],[-0.0848,51.31587],[-0.08193,51.31065],[-0.08865,51.3074],[-0.09122,51.30148],[-0.09734,51.3011],[-0.09432,51.29935],[-0.11475,51.29244],[-0.11779,51.28718],[-0.1243,51.28679],[-0.13725,51.30076],[-0.15532,51.30127],[-0.15774,51.30443],[-0.15432,51.31032],[-0.15833,51.31099],[-0.15717,51.31339],[-0.16188,51.31963],[-0.14558,51.32349],[-0.14441,51.32646],[-0.14919,51.32885],[-0.14407,51.33069],[-0.14748,51.3388],[-0.14346,51.34054],[-0.14458,51.34209],[-0.12835,51.34745],[-0.12685,51.34486],[-0.11684,51.34576],[-0.12137,51.35774],[-0.12455,51.35836],[-0.1209,51.36331],[-0.12412,51.36535],[-0.12208,51.36622],[-0.12476,51.37369],[-0.12784,51.37474],[-0.12584,51.3756],[-0.13026,51.38221],[-0.12876,51.38564],[-0.13432,51.39085],[-0.12414,51.39761],[-0.13128,51.40426],[-0.13208,51.4092],[-0.11263,51.42324],[-0.07856,51.41987]]]]}},{"type":"Feature","properties":{"code":"E09000009","name":"Ealing","listings_2015":192,"listings_2019":1599,"listings_2026":2418},"geometry":{"type":"MultiPolygon","coordinates":[[[[-0.33556,51.55656],[-0.30774,51.54588],[-0.30852,51.5432],[-0.30472,51.53986],[-0.30745,51.53309],[-0.30269,51.53198],[-0.28246,51.53865],[-0.27777,51.53507],[-0.27893,51.53326],[-0.28938,51.53168],[-0.28424,51.52891],[-0.26857,51.52982],[-0.25774,51.53537],[-0.24727,51.53349],[-0.24526,51.53122],[-0.25264,51.52449],[-0.24567,51.50463],[-0.25506,51.50433],[-0.25277,51.49989],[-0.25541,51.49498],[-0.26976,51.49416],[-0.28077,51.50285],[-0.30067,51.49933],[-0.29754,51.49488],[-0.30585,51.49618],[-0.31191,51.49197],[-0.31579,51.49591],[-0.34228,51.49599],[-0.35062,51.49911],[-0.37185,51.49048],[-0.37788,51.49661],[-0.38658,51.49469],[-0.40692,51.49967],[-0.3933,51.50719],[-0.38985,51.51409],[-0.3762,51.52487],[-0.37619,51.52882],[-0.41185,51.53407],[-0.41945,51.54033],[-0.39529,51.54255],[-0.39871,51.5479],[-0.37784,51.55498],[-0.37588,51.55308],[-0.34755,51.55966],[-0.33556,51.55656]]]]}},{"type":"Feature","properties":{"code":"E09000010","name":"Enfield","listings_2015":43,"listings_2019":587,"listings_2026":889},"geometry":{"type":"MultiPolygon","coordinates":[[[[-0.01192,51.68088],[-0.01148,51.66375],[-0.00892,51.66045],[-0.01333,51.63961],[-0.0255,51.62211],[-0.03516,51.61341],[-0.03407,51.60926],[-0.04139,51.60565],[-0.05451,51.60889],[-0.13871,51.61019],[-0.1445,51.61551],[-0.13559,51.62158],[-0.12909,51.63227],[-0.15163,51.64532],[-0.14987,51.64881],[-0.15473,51.65555],[-0.18589,51.66285],[-0.16361,51.6824],[-0.16349,51.68812],[-0.14937,51.68551],[-0.10578,51.69188],[-0.08389,51.68991],[-0.06187,51.68295],[-0.04931,51.68424],[-0.01192,51.68088]]]]}},{"type":"Feature","properties":{"code":"E09000011","name":"Greenwich","listings_2015":116,"listings_2019":1591,"listings_2026":1918},"geometry":{"type":"MultiPolygon","coordinates":[[[[-0.0206,51.47669],[-0.0206,51.47669]]],[[[-0.01639,51.48146],[-0.02304,51.47967],[-0.02637,51.4815],[-0.02471,51.48548],[-0.01639,51.48146]]],[[[0.12053,51.5111],[0.12419,51.47685],[0.11847,51.4789],[0.11199,51.47307],[0.10819,51.47612],[0.09824,51.47545],[0.08231,51.46664],[0.08294,51.45983],[0.07867,51.45929],[0.0857,51.45665],[0.08743,51.44328],[0.08283,51.44328],[0.08446,51.44198],[0.07497,51.43587],[0.07486,51.43081],[0.06171,51.4237],[0.04003,51.44087],[0.03055,51.44433],[0.02938,51.44171],[0.02151,51.44273],[0.02214,51.44874],[0.0151,51.45001],[0.01956,51.45171],[0.01154,51.45661],[0.00909,51.46587],[0.01327,51.46684],[0.01261,51.46981],[0.01654,51.46913],[0.015,51.47308],[0.01796,51.47383],[-0.01405,51.47267],[-0.01506,51.46804],[-0.0228,51.47436],[-0.01499,51.48175],[-0.0179,51.4832],[-0.00726,51.48377],[0.00138,51.48781],[0.00237,51.49299],[-0.00219,51.49984],[0.00082,51.50453],[0.00515,51.5044],[0.02157,51.49395],[0.05778,51.49404],[0.07625,51.49585],[0.09198,51.50898],[0.12053,51.5111]]]]}},{"type":"Feature","properties":{"code":"E09000012","name":"Hackney","listings_2015":2225,"listings_2019":5950,"listings_2026":5766},"geometry":{"type":"MultiPolygon","coordinates":[[[[-0.01717,51.55158],[-0.01894,51.55053],[-0.01655,51.54333],[-0.02899,51.54227],[-0.03323,51.54468],[-0.04482,51.53582],[-0.06243,51.53553],[-0.06625,51.53122],[-0.07458,51.52985],[-0.07727,51.52731],[-0.0762,51.52218],[-0.08312,51.51985],[-0.08523,51.52035],[-0.08501,51.52624],[-0.09537,51.52921],[-0.09703,51.533],[-0.08656,51.5373],[-0.08379,51.54659],[-0.07656,51.54784],[-0.07954,51.55175],[-0.09036,51.55415],[-0.09158,51.56017],[-0.10437,51.56477],[-0.09602,51.57066],[-0.09774,51.57362],[-0.06116,51.57779],[-0.04708,51.56259],[-0.02839,51.56102],[-0.01846,51.55518],[-0.01717,51.55158]]]]}},{"type":"Feature","properties":{"code":"E09000013","name":"Hammersmith and Fulham","listings_2015":1048,"listings_2019":4043,"listings_2026":4059},"geometry":{"type":"MultiPolygon","coordinates":[[[[-0.22844,51.53032],[-0.22828,51.5211],[-0.21932,51.50955],[-0.21581,51.50915],[-0.21798,51.50614],[-0.21418,51.50083],[-0.18417,51.47718],[-0.17936,51.47762],[-0.18447,51.46768],[-0.19416,51.46484],[-0.21131,51.46741],[-0.22255,51.47475],[-0.22362,51.48189],[-0.22867,51.48883],[-0.24494,51.489],[-0.24442,51.49794],[-0.2492,51.49695],[-0.25506,51.50433],[-0.24567,51.50463],[-0.24513,51.50677],[-0.25264,51.52449],[-0.24628,51.53274],[-0.22844,51.53032]]]]}},{"type":"Feature","properties":{"code":"E09000014","name":"Haringey","listings_2015":222,"listings_2019":2077,"listings_2026":2517},"geometry":{"type":"MultiPolygon","coordinates":[[[[-0.04139,51.60565],[-0.05046,51.59659],[-0.05342,51.59085],[-0.05218,51.5876],[-0.06194,51.58003],[-0.06116,51.57779],[-0.09774,51.57362],[-0.09602,51.57066],[-0.10437,51.56477],[-0.11953,51.57551],[-0.1424,51.56911],[-0.17123,51.57242],[-0.16572,51.58322],[-0.15713,51.58619],[-0.16023,51.58799],[-0.15869,51.592],[-0.16176,51.59748],[-0.15648,51.60532],[-0.15133,51.59747],[-0.14444,51.60013],[-0.14197,51.60371],[-0.14343,51.60883],[-0.1352,51.61122],[-0.11747,51.60821],[-0.05451,51.60889],[-0.04139,51.60565]]]]}},{"type":"Feature","properties":{"code":"E09000015","name":"Harrow","listings_2015":15,"listings_2019":451,"listings_2026":641},"geometry":{"type":"MultiPolygon","coordinates":[[[[-0.30445,51.63635],[-0.30411,51.63163],[-0.26711,51.60037],[-0.29041,51.59354],[-0.2842,51.5905],[-0.28247,51.58503],[-0.3047,51.58705],[-0.32664,51.57878],[-0.32215,51.56968],[-0.32985,51.56713],[-0.32824,51.56254],[-0.33556,51.55656],[-0.34755,51.55966],[-0.37588,51.55308],[-0.39156,51.58156],[-0.39198,51.58827],[-0.40033,51.59742],[-0.404,51.61318],[-0.37584,51.61819],[-0.35968,51.62526],[-0.33828,51.62947],[-0.31667,51.64054],[-0.30445,51.63635]]]]}},{"type":"Feature","properties":{"code":"E09000016","name":"Havering","listings_2015":0,"listings_2019":219,"listings_2026":520},"geometry":{"type":"MultiPolygon","coordinates":[[[[0.31304,51.56582],[0.31525,51.55789],[0.32782,51.55099],[0.33402,51.5405],[0.30072,51.53876],[0.29721,51.53766],[0.29775,51.53532],[0.26535,51.53215],[0.2667,51.52331],[0.26368,51.51787],[0.25383,51.51789],[0.24896,51.52867],[0.24584,51.52352],[0.2407,51.52196],[0.24491,51.51876],[0.23718,51.51933],[0.24192,51.50796],[0.22602,51.50588],[0.22997,51.49937],[0.21416,51.49604],[0.20964,51.48977],[0.18766,51.48789],[0.17853,51.50527],[0.15876,51.51227],[0.16546,51.52841],[0.19022,51.55265],[0.18267,51.56124],[0.18518,51.56551],[0.16189,51.56162],[0.1467,51.5688],[0.14974,51.56971],[0.14701,51.57571],[0.14745,51.58081],[0.15089,51.58349],[0.15114,51.59545],[0.14765,51.59679],[0.14951,51.6029],[0.14754,51.61222],[0.13818,51.62355],[0.1689,51.62142],[0.18124,51.62583],[0.20361,51.62517],[0.22409,51.63174],[0.25219,51.61777],[0.26391,51.60899],[0.25401,51.6016],[0.26987,51.59955],[0.27123,51.58899],[0.28667,51.57357],[0.29029,51.5643],[0.31304,51.56582]]]]}},{"type":"Feature","properties":{"code":"E09000017","name":"Hillingdon","listings_2015":29,"listings_2019":586,"listings_2026":967},"geometry":{"type":"MultiPolygon","coordinates":[[[[-0.404,51.61318],[-0.40033,51.59742],[-0.39198,51.58827],[-0.39156,51.58156],[-0.37766,51.5547],[-0.39871,51.5479],[-0.39529,51.54255],[-0.41959,51.53856],[-0.41185,51.53407],[-0.37619,51.52882],[-0.3762,51.52487],[-0.38985,51.51409],[-0.3933,51.50719],[-0.40969,51.49984],[-0.41692,51.48248],[-0.41577,51.47394],[-0.41113,51.46989],[-0.4336,51.46172],[-0.435,51.45688],[-0.44142,51.45678],[-0.44395,51.45329],[-0.51024,51.4675],[-0.49917,51.48858],[-0.49044,51.49385],[-0.48976,51.49899],[-0.48322,51.50708],[-0.48979,51.51153],[-0.49233,51.51708],[-0.48897,51.52907],[-0.49549,51.53855],[-0.49131,51.54617],[-0.47733,51.55527],[-0.47662,51.55919],[-0.48104,51.56071],[-0.48476,51.56687],[-0.48403,51.57513],[-0.48894,51.57727],[-0.4896,51.58177],[-0.49954,51.59214],[-0.50083,51.60025],[-0.49626,51.60246],[-0.49921,51.60888],[-0.49532,51.61894],[-0.50016,51.62215],[-0.49764,51.62662],[-0.49926,51.63048],[-0.49153,51.63076],[-0.45713,51.61229],[-0.44058,51.62007],[-0.404,51.61318]]]]}},{"type":"Feature","properties":{"code":"E09000018","name":"Hounslow","listings_2015":70,"listings_2019":998,"listings_2026":1357},"geometry":{"type":"MultiPolygon","coordinates":[[[[-0.32399,51.46498]]],[[[-0.31978,51.47068],[-0.32091,51.46598],[-0.31978,51.47068]]],[[[-0.29767,51.48522],[-0.29767,51.48522]]],[[[-0.28043,51.4848],[-0.28043,51.4848]]],[[[-0.24478,51.488],[-0.24757,51.48654],[-0.24478,51.488]]],[[[-0.28077,51.50285],[-0.26976,51.49416],[-0.25541,51.49498],[-0.25304,51.50142],[-0.2492,51.49695],[-0.24442,51.49794],[-0.24452,51.4887],[-0.24971,51.48569],[-0.25465,51.47291],[-0.26568,51.47192],[-0.28157,51.48629],[-0.29246,51.48746],[-0.30627,51.48279],[-0.30009,51.4827],[-0.30693,51.47621],[-0.32253,51.47069],[-0.32177,51.46543],[-0.32678,51.46164],[-0.32693,51.45701],[-0.33698,51.45465],[-0.34011,51.45924],[-0.34857,51.45676],[-0.37302,51.45747],[-0.38375,51.44951],[-0.38782,51.44944],[-0.37821,51.44248],[-0.36682,51.44162],[-0.38773,51.42889],[-0.38408,51.42269],[-0.38543,51.42063],[-0.39275,51.42344],[-0.40591,51.42267],[-0.41908,51.43236],[-0.42953,51.4288],[-0.43998,51.43063],[-0.43975,51.43462],[-0.44772,51.435],[-0.44629,51.44],[-0.45647,51.43811],[-0.45746,51.44909],[-0.46148,51.44899],[-0.45872,51.45634],[-0.44395,51.45329],[-0.44142,51.45678],[-0.435,51.45688],[-0.4336,51.46172],[-0.41113,51.46989],[-0.41577,51.47394],[-0.41692,51.48248],[-0.40922,51.50033],[-0.38658,51.49469],[-0.37788,51.49661],[-0.37185,51.49048],[-0.35062,51.49911],[-0.34228,51.49599],[-0.31579,51.49591],[-0.31191,51.49197],[-0.30585,51.49618],[-0.29754,51.49488],[-0.30067,51.49933],[-0.28077,51.50285]]]]}},{"type":"Feature","properties":{"code":"E09000019","name":"Islington","listings_2015":1695,"listings_2019":4948,"listings_2026":4752},"geometry":{"type":"MultiPolygon","coordinates":[[[[-0.10437,51.56477],[-0.09158,51.56017],[-0.09036,51.55415],[-0.07954,51.55175],[-0.07656,51.54784],[-0.08379,51.54659],[-0.08656,51.5373],[-0.09703,51.533],[-0.09537,51.52921],[-0.08501,51.52624],[-0.0862,51.51881],[-0.09676,51.52331],[-0.09766,51.52071],[-0.10529,51.51855],[-0.107,51.52218],[-0.11363,51.52457],[-0.116,51.52989],[-0.12256,51.53075],[-0.12701,51.54741],[-0.14092,51.56023],[-0.1424,51.56911],[-0.11953,51.57551],[-0.10437,51.56477]]]]}},{"type":"Feature","properties":{"code":"E09000020","name":"Kensington and Chelsea","listings_2015":1552,"listings_2019":5723,"listings_2026":6204},"geometry":{"type":"MultiPolygon","coordinates":[[[[-0.21602,51.52792],[-0.20163,51.52274],[-0.20062,51.52071],[-0.20374,51.52062],[-0.19917,51.51454],[-0.19505,51.51504],[-0.19212,51.50988],[-0.18786,51.51019],[-0.17952,51.49777],[-0.16542,51.49869],[-0.15846,51.50223],[-0.15583,51.48961],[-0.15002,51.48546],[-0.17576,51.48162],[-0.18385,51.47743],[-0.21418,51.50083],[-0.21798,51.50614],[-0.21581,51.50915],[-0.21932,51.50955],[-0.22828,51.5211],[-0.22844,51.53032],[-0.21602,51.52792]]]]}},{"type":"Feature","properties":{"code":"E09000021","name":"Kingston upon Thames","listings_2015":38,"listings_2019":526,"listings_2026":703},"geometry":{"type":"MultiPolygon","coordinates":[[[[-0.25109,51.43256],[-0.25424,51.4293],[-0.24468,51.40429],[-0.24741,51.39757],[-0.24171,51.3939],[-0.23873,51.38609],[-0.24503,51.38006],[-0.261,51.37959],[-0.28014,51.36765],[-0.28847,51.36213],[-0.28521,51.36119],[-0.3041,51.34313],[-0.30619,51.33508],[-0.31958,51.32774],[-0.33012,51.32752],[-0.32746,51.34401],[-0.33051,51.34842],[-0.31993,51.35963],[-0.31693,51.37292],[-0.30867,51.37545],[-0.30737,51.37838],[-0.31166,51.38741],[-0.31679,51.38857],[-0.31411,51.39022],[-0.3177,51.39367],[-0.30879,51.40192],[-0.30593,51.42126],[-0.31443,51.42825],[-0.31065,51.43221],[-0.30159,51.43143],[-0.29479,51.42644],[-0.29062,51.42899],[-0.28656,51.42019],[-0.25619,51.43665],[-0.25407,51.43729],[-0.25109,51.43256]]]]}},{"type":"Feature","properties":{"code":"E09000022","name":"Lambeth","listings_2015":1428,"listings_2019":4678,"listings_2026":4985},"geometry":{"type":"MultiPolygon","coordinates":[[[[-0.10886,51.50843],[-0.10592,51.50203],[-0.11147,51.49646],[-0.10315,51.49149],[-0.10846,51.48585],[-0.10403,51.4809],[-0.10822,51.48031],[-0.09997,51.47686],[-0.1006,51.47431],[-0.09598,51.46987],[-0.09302,51.47212],[-0.09004,51.46607],[-0.10138,51.45192],[-0.09513,51.44553],[-0.08834,51.42952],[-0.07856,51.41987],[-0.11263,51.42324],[-0.12788,51.412],[-0.14806,51.41287],[-0.13779,51.42111],[-0.13838,51.43056],[-0.13525,51.43034],[-0.13996,51.43685],[-0.13589,51.44198],[-0.14361,51.44184],[-0.14566,51.44585],[-0.14229,51.45098],[-0.1477,51.45234],[-0.15054,51.46763],[-0.13459,51.47341],[-0.12212,51.4919],[-0.11823,51.50583],[-0.10886,51.50843]]]]}},{"type":"Feature","properties":{"code":"E09000023","name":"Lewisham","listings_2015":615,"listings_2019":2246,"listings_2026":2593},"geometry":{"type":"MultiPolygon","coordinates":[[[[-0.01893,51.47845],[-0.01893,51.47845]]],[[[-0.03238,51.49305],[-0.02471,51.48548],[-0.02637,51.4815],[-0.01711,51.48039],[-0.0228,51.47436],[-0.01506,51.46804],[-0.01405,51.47267],[0.01796,51.47383],[0.015,51.47308],[0.01654,51.46913],[0.01261,51.46981],[0.01327,51.46684],[0.00909,51.46587],[0.00996,51.4594],[0.01956,51.45171],[0.0151,51.45001],[0.02214,51.44874],[0.02151,51.44273],[0.02938,51.44171],[0.02882,51.43877],[0.02478,51.43821],[0.02544,51.43567],[0.02869,51.43641],[0.03116,51.43209],[0.03771,51.43334],[0.03906,51.42469],[0.03628,51.42242],[0.02546,51.42897],[0.00811,51.42304],[0.00353,51.41743],[-0.01031,51.41358],[-0.02147,51.41631],[-0.02093,51.42093],[-0.03022,51.42568],[-0.04625,51.42237],[-0.07391,51.42621],[-0.07271,51.43231],[-0.0634,51.43757],[-0.06503,51.44116],[-0.0618,51.44779],[-0.05756,51.45034],[-0.04609,51.44986],[-0.04164,51.455],[-0.04613,51.45695],[-0.04569,51.46352],[-0.05227,51.46923],[-0.05397,51.48794],[-0.03238,51.49305]]]]}},{"type":"Feature","properties":{"code":"E09000024","name":"Merton","listings_2015":113,"listings_2019":1326,"listings_2026":1603},"geometry":{"type":"MultiPolygon","coordinates":[[[[-0.14036,51.41926],[-0.14806,51.41287],[-0.12772,51.41232],[-0.1323,51.40681],[-0.12414,51.39761],[-0.12873,51.3935],[-0.14185,51.3893],[-0.16096,51.38782],[-0.17481,51.39341],[-0.1884,51.38543],[-0.19384,51.38791],[-0.2003,51.38494],[-0.20978,51.3883],[-0.21808,51.38018],[-0.23371,51.38761],[-0.2346,51.39057],[-0.23969,51.38927],[-0.24741,51.39757],[-0.24468,51.40429],[-0.25424,51.4293],[-0.25109,51.43256],[-0.23124,51.43816],[-0.21253,51.43783],[-0.19003,51.44146],[-0.19104,51.43303],[-0.18573,51.43317],[-0.18194,51.42473],[-0.16471,51.42007],[-0.15988,51.42261],[-0.14445,51.41775],[-0.14036,51.41926]]]]}},{"type":"Feature","properties":{"code":"E09000025","name":"Newham","listings_2015":198,"listings_2019":1889,"listings_2026":2518},"geometry":{"type":"MultiPolygon","coordinates":[[[[0.07565,51.52982],[0.07565,51.52982]]],[[[0.05566,51.55935],[0.06778,51.55327],[0.06686,51.53986],[0.07275,51.52927],[0.09209,51.52562],[0.0907,51.52394],[0.0969,51.51531],[0.08332,51.51152],[0.07367,51.50036],[0.06012,51.49836],[0.01968,51.49964],[0.00657,51.51003],[0.00721,51.51437],[0.00257,51.51097],[0.00315,51.51583],[-0.00855,51.52005],[-0.00651,51.52568],[0.00066,51.52831],[0.00111,51.53109],[-0.0023,51.52716],[-0.00798,51.52723],[-0.00788,51.523],[-0.00864,51.52756],[-0.01738,51.53146],[-0.02113,51.53651],[-0.01609,51.54248],[-0.01898,51.5516],[0.00579,51.55066],[0.02339,51.55679],[0.02552,51.55404],[0.04627,51.55483],[0.04203,51.56149],[0.05034,51.56402],[0.05566,51.55935]]]]}},{"type":"Feature","properties":{"code":"E09000026","name":"Redbridge","listings_2015":30,"listings_2019":646,"listings_2026":993},"geometry":{"type":"MultiPolygon","coordinates":[[[[0.02182,51.62883],[0.0409,51.61568],[0.05367,51.61828],[0.04803,51.61323],[0.07287,51.60467],[0.07937,51.60704],[0.08884,51.60486],[0.09477,51.61082],[0.09228,51.61357],[0.11931,51.61537],[0.13818,51.62355],[0.14754,51.61222],[0.14951,51.6029],[0.14821,51.59897],[0.12639,51.58673],[0.12776,51.58164],[0.13357,51.57995],[0.12919,51.57631],[0.13158,51.57182],[0.12931,51.56647],[0.11905,51.56305],[0.11749,51.55918],[0.12049,51.55857],[0.11327,51.55727],[0.11475,51.55533],[0.11195,51.55267],[0.09352,51.54586],[0.09261,51.54965],[0.07181,51.54356],[0.06601,51.55679],[0.0574,51.56085],[0.06758,51.55466],[0.06836,51.54439],[0.06604,51.55547],[0.0572,51.558],[0.05034,51.56402],[0.04203,51.56149],[0.04627,51.55483],[0.02552,51.55404],[0.01482,51.55943],[0.01446,51.56562],[0.01868,51.56613],[0.01913,51.56982],[0.0121,51.59269],[0.01301,51.59921],[0.02144,51.6118],[0.0163,51.61684],[0.00869,51.61907],[0.01454,51.61889],[0.02182,51.62883]]]]}},{"type":"Feature","properties":{"code":"E09000027","name":"Richmond upon Thames","listings_2015":100,"listings_2019":1147,"listings_2026":1257},"geometry":{"type":"MultiPolygon","coordinates":[[[[-0.33119,51.43957],[-0.33119,51.43957]]],[[[-0.32176,51.44583],[-0.32807,51.44397],[-0.32176,51.44583]]],[[[-0.30874,51.45816],[-0.30874,51.45816]]],[[[-0.32644,51.46086],[-0.32644,51.46086]]],[[[-0.32572,51.46312],[-0.32572,51.46312]]],[[[-0.3229,51.46537],[-0.3229,51.46537]]],[[[-0.29479,51.48598],[-0.29742,51.48457],[-0.29479,51.48598]]],[[[-0.29395,51.4862],[-0.28989,51.48717],[-0.29395,51.4862]]],[[[-0.22487,51.47368],[-0.22376,51.47074],[-0.23273,51.47251],[-0.23329,51.46397],[-0.25295,51.46522],[-0.25619,51.46283],[-0.25911,51.45495],[-0.24729,51.4492],[-0.2416,51.44312],[-0.27091,51.42956],[-0.2804,51.42189],[-0.28656,51.42019],[-0.29062,51.42899],[-0.29479,51.42644],[-0.30159,51.43143],[-0.31065,51.43221],[-0.31443,51.42825],[-0.30593,51.42126],[-0.30879,51.40192],[-0.31983,51.39259],[-0.32782,51.39184],[-0.34029,51.40295],[-0.35914,51.4119],[-0.37787,51.40791],[-0.38965,51.41069],[-0.39029,51.41434],[-0.38612,51.41428],[-0.38664,51.42008],[-0.39291,51.42328],[-0.38543,51.42063],[-0.38408,51.42269],[-0.38773,51.42889],[-0.36682,51.44162],[-0.37821,51.44248],[-0.38782,51.44944],[-0.38375,51.44951],[-0.37302,51.45747],[-0.34857,51.45676],[-0.34011,51.45924],[-0.33698,51.45465],[-0.32693,51.45701],[-0.32638,51.46206],[-0.32174,51.46536],[-0.30389,51.45329],[-0.30885,51.44868],[-0.32515,51.44653],[-0.33163,51.44126],[-0.32722,51.43243],[-0.31849,51.42909],[-0.32695,51.43339],[-0.33008,51.44159],[-0.30576,51.4486],[-0.30261,51.45223],[-0.30799,51.45881],[-0.31977,51.46467],[-0.31858,51.47021],[-0.3068,51.47493],[-0.29526,51.48483],[-0.28443,51.4859],[-0.27048,51.47269],[-0.25855,51.47043],[-0.25147,51.47363],[-0.2484,51.48383],[-0.23564,51.489],[-0.22802,51.48512],[-0.22487,51.47368]]]]}},{"type":"Feature","properties":{"code":"E09000028","name":"Southwark","listings_2015":1151,"listings_2019":4751,"listings_2026":5158},"geometry":{"type":"MultiPolygon","coordinates":[[[[-0.10468,51.50861],[-0.08114,51.50594],[-0.07087,51.50257],[-0.07349,51.50049],[-0.05725,51.50085],[-0.0413,51.50749],[-0.03232,51.50435],[-0.03239,51.49309],[-0.05397,51.48794],[-0.05227,51.46923],[-0.04569,51.46352],[-0.04613,51.45695],[-0.04164,51.455],[-0.04609,51.44986],[-0.05756,51.45034],[-0.0618,51.44779],[-0.06503,51.44116],[-0.0634,51.43757],[-0.07271,51.43231],[-0.07829,51.4206],[-0.08834,51.42952],[-0.09513,51.44553],[-0.10138,51.45192],[-0.09004,51.46607],[-0.09302,51.47212],[-0.09598,51.46987],[-0.1006,51.47431],[-0.09997,51.47686],[-0.10822,51.48031],[-0.10403,51.4809],[-0.10846,51.48585],[-0.10315,51.49149],[-0.11147,51.49646],[-0.10592,51.50203],[-0.10886,51.50843],[-0.10468,51.50861]]]]}},{"type":"Feature","properties":{"code":"E09000029","name":"Sutton","listings_2015":0,"listings_2019":259,"listings_2026":483},"geometry":{"type":"MultiPolygon","coordinates":[[[[-0.13432,51.39085],[-0.12876,51.38564],[-0.13026,51.38221],[-0.12584,51.3756],[-0.12784,51.37474],[-0.12476,51.37369],[-0.12208,51.36622],[-0.12412,51.36535],[-0.1209,51.36331],[-0.12455,51.35836],[-0.12137,51.35774],[-0.11684,51.34576],[-0.12685,51.34486],[-0.12835,51.34745],[-0.14458,51.34209],[-0.14346,51.34054],[-0.14748,51.3388],[-0.14407,51.33069],[-0.14919,51.32885],[-0.14423,51.32593],[-0.14793,51.32268],[-0.15652,51.32149],[-0.16419,51.32604],[-0.16308,51.33026],[-0.17286,51.33001],[-0.182,51.33785],[-0.19732,51.3436],[-0.21305,51.33555],[-0.21423,51.33025],[-0.22084,51.3298],[-0.22982,51.33652],[-0.21726,51.34339],[-0.22406,51.35927],[-0.23319,51.36601],[-0.24538,51.36689],[-0.24428,51.38307],[-0.23873,51.38609],[-0.23969,51.38927],[-0.2346,51.39057],[-0.23371,51.38761],[-0.21808,51.38018],[-0.20978,51.3883],[-0.2003,51.38494],[-0.19384,51.38791],[-0.1884,51.38543],[-0.17481,51.39341],[-0.16521,51.38797],[-0.13432,51.39085]]]]}},{"type":"Feature","properties":{"code":"E09000030","name":"Tower Hamlets","listings_2015":2237,"listings_2019":7752,"listings_2026":6865},"geometry":{"type":"MultiPolygon","coordinates":[[[[-0.01655,51.54333],[-0.02113,51.53651],[-0.00756,51.52628],[-0.00917,51.5199],[-0.00597,51.51642],[0.00267,51.51552],[0.00281,51.51039],[0.00669,51.51392],[0.00558,51.51003],[0.00896,51.50884],[-0.00173,51.50748],[-0.00866,51.50135],[-0.0033,51.49227],[-0.00462,51.48814],[-0.01638,51.48614],[-0.02382,51.48895],[-0.02787,51.49468],[-0.02675,51.50334],[-0.03152,51.50784],[-0.02986,51.50891],[-0.04606,51.50936],[-0.05963,51.50283],[-0.07947,51.50783],[-0.07274,51.51041],[-0.07941,51.51889],[-0.07458,51.52985],[-0.06625,51.53122],[-0.06243,51.53553],[-0.04482,51.53582],[-0.03323,51.54468],[-0.02899,51.54227],[-0.01655,51.54333]]]]}},{"type":"Feature","properties":{"code":"E09000031","name":"Waltham Forest","listings_2015":79,"listings_2019":1326,"listings_2026":1856},"geometry":{"type":"MultiPolygon","coordinates":[[[[0.02182,51.62883],[0.01454,51.61889],[0.00869,51.61907],[0.0163,51.61684],[0.02144,51.6118],[0.01301,51.59921],[0.0121,51.59269],[0.01913,51.56982],[0.01868,51.56613],[0.01446,51.56562],[0.01438,51.56079],[0.02152,51.55489],[0.01114,51.55439],[0.00579,51.55066],[-0.01692,51.5514],[-0.01846,51.55518],[-0.02839,51.56102],[-0.04708,51.56259],[-0.05843,51.57256],[-0.06194,51.58003],[-0.05218,51.5876],[-0.05342,51.59085],[-0.05046,51.59659],[-0.03407,51.60926],[-0.03516,51.61341],[-0.01523,51.63555],[-0.01226,51.64623],[0.00107,51.64176],[0.02272,51.64112],[0.02574,51.63457],[0.02182,51.62883]]]]}},{"type":"Feature","properties":{"code":"E09000032","name":"Wandsworth","listings_2015":977,"listings_2019":4082,"listings_2026":4724},"geometry":{"type":"MultiPolygon","coordinates":[[[[-0.14036,51.41926],[-0.14445,51.41775],[-0.15988,51.42261],[-0.16471,51.42007],[-0.18194,51.42473],[-0.18573,51.43317],[-0.19104,51.43303],[-0.19003,51.44146],[-0.21253,51.43783],[-0.23124,51.43816],[-0.25109,51.43256],[-0.25407,51.43729],[-0.2416,51.44312],[-0.24729,51.4492],[-0.25911,51.45495],[-0.25798,51.46034],[-0.25295,51.46522],[-0.23329,51.46397],[-0.23097,51.4728],[-0.22289,51.47172],[-0.20727,51.4639],[-0.1955,51.46289],[-0.1933,51.4598],[-0.19479,51.46291],[-0.1836,51.46546],[-0.17163,51.48026],[-0.12631,51.48447],[-0.13459,51.47341],[-0.15121,51.46586],[-0.1477,51.45234],[-0.14229,51.45098],[-0.14566,51.44585],[-0.14361,51.44184],[-0.13589,51.44198],[-0.13996,51.43685],[-0.13525,51.43034],[-0.13838,51.43056],[-0.13779,51.42111],[-0.14036,51.41926]]]]}},{"type":"Feature","properties":{"code":"E09000033","name":"Westminster","listings_2015":2421,"listings_2019":9062,"listings_2026":10921},"geometry":{"type":"MultiPolygon","coordinates":[[[[-0.11157,51.51534],[-0.1115,51.51083],[-0.12239,51.50606],[-0.12841,51.48819],[-0.1381,51.48481],[-0.15002,51.48546],[-0.15583,51.48961],[-0.15846,51.50223],[-0.16542,51.49869],[-0.17952,51.49777],[-0.18786,51.51019],[-0.19212,51.50988],[-0.19505,51.51504],[-0.19917,51.51454],[-0.20374,51.52062],[-0.20062,51.52071],[-0.20163,51.52274],[-0.20642,51.52604],[-0.21554,51.52672],[-0.21586,51.52975],[-0.20299,51.53289],[-0.19648,51.52764],[-0.19147,51.53629],[-0.18872,51.53453],[-0.17851,51.53981],[-0.1649,51.53578],[-0.15268,51.53751],[-0.14712,51.52503],[-0.13078,51.51708],[-0.12934,51.51347],[-0.11157,51.51534]]]]}}]}